{"fetched_at":"2026-03-29T02:12:04Z","count":15717,"tles":[{"name":"STARLINK-1131","line1":"1 45047U 20006D   26087.54194027  .00002139  00000+0  84332-4 0  9991","line2":"2 45047  53.1588 193.4102 0000923 100.1289 259.9816 15.30195137339434","category":"Starlink"}]}